STARLINK-4621           
1 53676U 22105AE  26068.66720969 -.00001041  00000+0 -76561-4 0  9990
2 53676  97.6010 310.1897 0003311  33.3535 326.7897 15.01252403193234
LEMUR-2-STAR-FOX        
1 62696U 25009CR  26068.81264061  .00009785  00000+0  77276-3 0  9995
2 62696  97.7038 151.2547 0002501 152.1910 207.9448 15.00891969 62647
